[{"OBJECT_NAME":"OBJECT F","OBJECT_ID":"2023-072F","EPOCH":"2026-03-09T23:31:37.259904","MEAN_MOTION":15.29470958,"ECCENTRICITY":0.00062878,"INCLINATION":97.5173,"RA_OF_ASC_NODE":265.798,"ARG_OF_PERICENTER":19.0017,"MEAN_ANOMALY":341.1456,"EPHEMERIS_TYPE":0,"CLASSIFICATION_TYPE":"U","NORAD_CAT_ID":56748,"ELEMENT_SET_NO":999,"REV_AT_EPOCH":15460,"BSTAR":0.00043416252,"MEAN_MOTION_DOT":0.00012341,"MEAN_MOTION_DDOT":0},{"OBJECT_NAME":"STARLINK-35436","OBJECT_ID":"2025-225Y","EPOCH":"2026-03-09T12:31:31.190592","MEAN_MOTION":15.30187412,"ECCENTRICITY":8.792e-5,"INCLINATION":53.1603,"RA_OF_ASC_NODE":166.3686,"ARG_OF_PERICENTER":147.9088,"MEAN_ANOMALY":212.1967,"EPHEMERIS_TYPE":0,"CLASSIFICATION_TYPE":"U","NORAD_CAT_ID":65932,"ELEMENT_SET_NO":999,"REV_AT_EPOCH":2438,"BSTAR":0.001106171,"MEAN_MOTION_DOT":0.00032533,"MEAN_MOTION_DDOT":0}]
